{"type": "FeatureCollection", "features": [ {"type": "Feature", "properties": {"norad_id": 33799, "name": "COSMOS 2251 DEB", "group": "cosmos-2251-debris", "lat": 52.38459231756273, "lon": -124.80865313100857, "alt_km": 610.1538069523485, "timestamp": "2025-12-15T04:01:20.844556+00:00", "meta": {"OBJECT_NAME": "COSMOS 2251 DEB", "OBJECT_ID": "1993-036AQ", "EPOCH": "2025-12-14T08:15:45.311616", "MEAN_MOTION": 14.79629312, "ECCENTRICITY": 0.00232347, "INCLINATION": 74.0316, "RA_OF_ASC_NODE": 78.6271, "ARG_OF_PERICENTER": 148.6916, "MEAN_ANOMALY": 272.0846, "EPHEMERIS_TYPE": 0, "CLASSIFICATION_TYPE": "U", "NORAD_CAT_ID": 33799, "ELEMENT_SET_NO": 999, "REV_AT_EPOCH": 88835, "BSTAR": 0.0012691983, "MEAN_MOTION_DOT": 9.541e-05, "MEAN_MOTION_DDOT": 0}, "tle": {"line1": "1 33799U 93036AQ  25348.34427444  .00009541  00000+0  12692-2 0  9996", "line2": "2 33799  74.0316  78.6271 0023234 148.6916 272.0846 14.79629312888359"}}, "geometry": {"type": "Point", "coordinates": [-124.80865313100857, 52.38459231756273]}}, {"type": "Feature", "properties": {"norad_id": 33805, "name": "COSMOS 2251 DEB", "group": "cosmos-2251-debris", "lat": 63.38421104223074, "lon": -18.436901996502183, "alt_km": 676.3921260227844, "timestamp": "2025-12-15T04:01:20.844567+00:00", "meta": {"OBJECT_NAME": "COSMOS 2251 DEB", "OBJECT_ID": "1993-036AW", "EPOCH": "2025-12-14T07:56:45.506400", "MEAN_MOTION": 14.57860172, "ECCENTRICITY": 0.00601483, "INCLINATION": 74.0309, "RA_OF_ASC_NODE": 308.3034, "ARG_OF_PERICENTER": 136.8207, "MEAN_ANOMALY": 223.7698, "EPHEMERIS_TYPE": 0, "CLASSIFICATION_TYPE": "U", "NORAD_CAT_ID": 33805, "ELEMENT_SET_NO": 999, "REV_AT_EPOCH": 89250, "BSTAR": 0.00032584581, "MEAN_MOTION_DOT": 1.5e-05, "MEAN_MOTION_DDOT": 0}, "tle": {"line1": "1 33805U 93036AW  25348.33108225  .00001500  00000+0  32585-3 0  9997", "line2": "2 33805  74.0309 308.3034 0060148 136.8207 223.7698 14.57860172892503"}}, "geometry": {"type": "Point", "coordinates": [-18.436901996502183, 63.38421104223074]}}, {"type": "Feature", "properties": {"norad_id": 33811, "name": "COSMOS 2251 DEB", "group": "cosmos-2251-debris", "lat": -8.189074537620407, "lon": -64.77041554745148, "alt_km": 534.9044963423748, "timestamp": "2025-12-15T04:01:20.844578+00:00", "meta": {"OBJECT_NAME": "COSMOS 2251 DEB", "OBJECT_ID": "1993-036BC", "EPOCH": "2025-12-14T07:51:39.265920", "MEAN_MOTION": 15.0533642, "ECCENTRICITY": 0.00308145, "INCLINATION": 73.8378, "RA_OF_ASC_NODE": 299.3631, "ARG_OF_PERICENTER": 19.748, "MEAN_ANOMALY": 101.3877, "EPHEMERIS_TYPE": 0, "CLASSIFICATION_TYPE": "U", "NORAD_CAT_ID": 33811, "ELEMENT_SET_NO": 999, "REV_AT_EPOCH": 90042, "BSTAR": 0.0012030584, "MEAN_MOTION_DOT": 0.00017413, "MEAN_MOTION_DDOT": 0}, "tle": {"line1": "1 33811U 93036BC  25348.32753780  .00017413  00000+0  12031-2 0  9998", "line2": "2 33811  73.8378 299.3631 0030814  19.7480 101.3877 15.05336420900423"}}, "geometry": {"type": "Point", "coordinates": [-64.77041554745148, -8.189074537620407]}}, {"type": "Feature", "properties": {"norad_id": 33815, "name": "COSMOS 2251 DEB", "group": "cosmos-2251-debris", "lat": 5.0215128748959765, "lon": -9.967242758124767, "alt_km": 511.33192147440604, "timestamp": "2025-12-15T04:01:20.844589+00:00", "meta": {"OBJECT_NAME": "COSMOS 2251 DEB", "OBJECT_ID": "1993-036BG", "EPOCH": "2025-12-13T23:18:57.597408", "MEAN_MOTION": 15.18472653, "ECCENTRICITY": 0.00013921, "INCLINATION": 73.9517, "RA_OF_ASC_NODE": 173.9958, "ARG_OF_PERICENTER": 264.5403, "MEAN_ANOMALY": 213.6612, "EPHEMERIS_TYPE": 0, "CLASSIFICATION_TYPE": "U", "NORAD_CAT_ID": 33815, "ELEMENT_SET_NO": 999, "REV_AT_EPOCH": 88389, "BSTAR": 0.0074110076, "MEAN_MOTION_DOT": 0.00156118, "MEAN_MOTION_DDOT": 0}, "tle": {"line1": "1 33815U 93036BG  25347.97149997  .00156118  00000+0  74110-2 0  9993", "line2": "2 33815  73.9517 173.9958 0001392 264.5403 213.6612 15.18472653883894"}}, "geometry": {"type": "Point", "coordinates": [-9.967242758124767, 5.0215128748959765]}}, {"type": "Feature", "properties": {"norad_id": 33816, "name": "COSMOS 2251 DEB", "group": "cosmos-2251-debris", "lat": -69.28933352596033, "lon": 51.45072171048176, "alt_km": 1155.1751235231313, "timestamp": "2025-12-15T04:01:20.844599+00:00", "meta": {"OBJECT_NAME": "COSMOS 2251 DEB", "OBJECT_ID": "1993-036BH", "EPOCH": "2025-12-14T07:33:33.131520", "MEAN_MOTION": 13.81785779, "ECCENTRICITY": 0.0264617, "INCLINATION": 73.895, "RA_OF_ASC_NODE": 102.726, "ARG_OF_PERICENTER": 115.3455, "MEAN_ANOMALY": 247.5324, "EPHEMERIS_TYPE": 0, "CLASSIFICATION_TYPE": "U", "NORAD_CAT_ID": 33816, "ELEMENT_SET_NO": 999, "REV_AT_EPOCH": 84695, "BSTAR": 0.00057391873, "MEAN_MOTION_DOT": 7.8e-06, "MEAN_MOTION_DDOT": 0}, "tle": {"line1": "1 33816U 93036BH  25348.31496680  .00000780  00000+0  57392-3 0  9994", "line2": "2 33816  73.8950 102.7260 0264617 115.3455 247.5324 13.81785779846958"}}, "geometry": {"type": "Point", "coordinates": [51.45072171048176, -69.28933352596033]}}, {"type": "Feature", "properties": {"norad_id": 33818, "name": "COSMOS 2251 DEB", "group": "cosmos-2251-debris", "lat": 10.789446587743312, "lon": 164.34137730864748, "alt_km": 542.6031972629753, "timestamp": "2025-12-15T04:01:20.844609+00:00", "meta": {"OBJECT_NAME": "COSMOS 2251 DEB", "OBJECT_ID": "1993-036BK", "EPOCH": "2025-12-14T06:30:53.383680", "MEAN_MOTION": 15.12653004, "ECCENTRICITY": 0.00265636, "INCLINATION": 74.076, "RA_OF_ASC_NODE": 163.0745, "ARG_OF_PERICENTER": 151.2373, "MEAN_ANOMALY": 22.2407, "EPHEMERIS_TYPE": 0, "CLASSIFICATION_TYPE": "U", "NORAD_CAT_ID": 33818, "ELEMENT_SET_NO": 999, "REV_AT_EPOCH": 89885, "BSTAR": 0.0027493947, "MEAN_MOTION_DOT": 0.00048782, "MEAN_MOTION_DDOT": 0}, "tle": {"line1": "1 33818U 93036BK  25348.27145120  .00048782  00000+0  27494-2 0  9994", "line2": "2 33818  74.0760 163.0745 0026563 151.2373  22.2407 15.12653004898851"}}, "geometry": {"type": "Point", "coordinates": [164.34137730864748, 10.789446587743312]}}, {"type": "Feature", "properties": {"norad_id": 33819, "name": "COSMOS 2251 DEB", "group": "cosmos-2251-debris", "lat": 24.18147682384545, "lon": 18.139812895260057, "alt_km": 781.217426126811, "timestamp": "2025-12-15T04:01:20.844620+00:00", "meta": {"OBJECT_NAME": "COSMOS 2251 DEB", "OBJECT_ID": "1993-036BL", "EPOCH": "2025-12-14T01:14:11.681376", "MEAN_MOTION": 14.32229745, "ECCENTRICITY": 0.00891136, "INCLINATION": 74.1788, "RA_OF_ASC_NODE": 207.4729, "ARG_OF_PERICENTER": 68.3941, "MEAN_ANOMALY": 93.0759, "EPHEMERIS_TYPE": 0, "CLASSIFICATION_TYPE": "U", "NORAD_CAT_ID": 33819, "ELEMENT_SET_NO": 999, "REV_AT_EPOCH": 87514, "BSTAR": 0.00083228788, "MEAN_MOTION_DOT": 2.321e-05, "MEAN_MOTION_DDOT": 0}, "tle": {"line1": "1 33819U 93036BL  25348.05152409  .00002321  00000+0  83229-3 0  9997", "line2": "2 33819  74.1788 207.4729 0089113  68.3941  93.0759 14.32229745875142"}}, "geometry": {"type": "Point", "coordinates": [18.139812895260057, 24.18147682384545]}}, {"type": "Feature", "properties": {"norad_id": 33821, "name": "COSMOS 2251 DEB", "group": "cosmos-2251-debris", "lat": -67.9508977358841, "lon": 92.70470244592252, "alt_km": 510.9691249934049, "timestamp": "2025-12-15T04:01:20.844630+00:00", "meta": {"OBJECT_NAME": "COSMOS 2251 DEB", "OBJECT_ID": "1993-036BN", "EPOCH": "2025-12-14T03:10:04.469952", "MEAN_MOTION": 15.25421712, "ECCENTRICITY": 0.00515301, "INCLINATION": 74.0293, "RA_OF_ASC_NODE": 139.8932, "ARG_OF_PERICENTER": 172.9747, "MEAN_ANOMALY": 187.2189, "EPHEMERIS_TYPE": 0, "CLASSIFICATION_TYPE": "U", "NORAD_CAT_ID": 33821, "ELEMENT_SET_NO": 999, "REV_AT_EPOCH": 75022, "BSTAR": 0.0012508224, "MEAN_MOTION_DOT": 0.00032948, "MEAN_MOTION_DDOT": 0}, "tle": {"line1": "1 33821U 93036BN  25348.13199618  .00032948  00000+0  12508-2 0  9991", "line2": "2 33821  74.0293 139.8932 0051530 172.9747 187.2189 15.25421712750222"}}, "geometry": {"type": "Point", "coordinates": [92.70470244592252, -67.9508977358841]}}, {"type": "Feature", "properties": {"norad_id": 33822, "name": "COSMOS 2251 DEB", "group": "cosmos-2251-debris", "lat": 7.966539610232019, "lon": 7.106334812008406, "alt_km": 799.6421654155647, "timestamp": "2025-12-15T04:01:20.844641+00:00", "meta": {"OBJECT_NAME": "COSMOS 2251 DEB", "OBJECT_ID": "1993-036BP", "EPOCH": "2025-12-14T00:36:58.096224", "MEAN_MOTION": 14.13078212, "ECCENTRICITY": 0.01532334, "INCLINATION": 74.0696, "RA_OF_ASC_NODE": 191.4122, "ARG_OF_PERICENTER": 237.4428, "MEAN_ANOMALY": 248.9103, "EPHEMERIS_TYPE": 0, "CLASSIFICATION_TYPE": "U", "NORAD_CAT_ID": 33822, "ELEMENT_SET_NO": 999, "REV_AT_EPOCH": 86072, "BSTAR": 0.0014684051, "MEAN_MOTION_DOT": 3.042e-05, "MEAN_MOTION_DDOT": 0}, "tle": {"line1": "1 33822U 93036BP  25348.02567241  .00003042  00000+0  14684-2 0  9991", "line2": "2 33822  74.0696 191.4122 0153233 237.4428 248.9103 14.13078212860728"}}, "geometry": {"type": "Point", "coordinates": [7.106334812008406, 7.966539610232019]}}, {"type": "Feature", "properties": {"norad_id": 33823, "name": "COSMOS 2251 DEB", "group": "cosmos-2251-debris", "lat": -47.90669387583218, "lon": -16.163233933033446, "alt_km": 784.7333233267682, "timestamp": "2025-12-15T04:01:20.844651+00:00", "meta": {"OBJECT_NAME": "COSMOS 2251 DEB", "OBJECT_ID": "1993-036BQ", "EPOCH": "2025-12-14T05:27:54.405792", "MEAN_MOTION": 13.98954652, "ECCENTRICITY": 0.02093477, "INCLINATION": 73.8089, "RA_OF_ASC_NODE": 146.7224, "ARG_OF_PERICENTER": 271.6436, "MEAN_ANOMALY": 268.6786, "EPHEMERIS_TYPE": 0, "CLASSIFICATION_TYPE": "U", "NORAD_CAT_ID": 33823, "ELEMENT_SET_NO": 999, "REV_AT_EPOCH": 85630, "BSTAR": 0.0010015164, "MEAN_MOTION_DOT": 1.718e-05, "MEAN_MOTION_DDOT": 0}, "tle": {"line1": "1 33823U 93036BQ  25348.22771303  .00001718  00000+0  10015-2 0  9992", "line2": "2 33823  73.8089 146.7224 0209347 271.6436 268.6786 13.98954652856303"}}, "geometry": {"type": "Point", "coordinates": [-16.163233933033446, -47.90669387583218]}}]}